KOMPSAT-3A              
1 40536U 15014A   26170.62431939  .00020220  00000+0  29184-3 0  9994
2 40536  97.6890 162.1650 0056717 165.6681 194.6197 15.54087994622198
SENTINEL-2A             
1 40697U 15028A   26170.59231582  .00000431  00000+0  18088-3 0  9998
2 40697  98.5682 245.4101 0001123  91.5212 268.6099 14.30817248574071
GAOFEN-8                
1 40701U 15030A   26170.61206418  .00019409  00000+0  39842-3 0  9996
2 40701  97.6903   4.1275 0009011 177.6866 182.4426 15.46028994611822
CARBONITE 1 (CBNT-1)    
1 40718U 15032D   26170.61054878  .00001085  00000+0  13761-3 0  9990
2 40718  97.6508 348.5750 0013047 289.4968  70.4836 14.83593085589703
YAOGAN-27               
1 40878U 15040A   26170.61326806  .00000158  00000+0  52658-3 0  9997
2 40878 100.1156 156.8910 0007716 204.4217 155.6532 13.16071137517981
GAOFEN-9 01             
1 40894U 15047A   26170.62673362  .00000740  00000+0  96978-4 0  9996
2 40894  97.6279 206.2108 0028537 130.1525 230.2195 14.82887697580553
YAOGAN-28               
1 41026U 15064A   26170.61566019  .00005189  00000+0  19562-3 0  9997
2 41026  97.3083 308.8276 0010866 174.7884 185.3471 15.27445477591054
YAOGAN-29               
1 41038U 15069A   26170.60666095 -.00000074  00000+0 -24952-5 0  9990
2 41038  98.0020 199.2438 0002516  49.9674 310.1760 14.83086053570981
KENT RIDGE 1            
1 41167U 15077B   26170.58638348  .00003326  00000+0  10531-3 0  9996
2 41167  14.9791 248.1477 0008250 272.4275  87.5102 15.23144229581469
GAOFEN-4                
1 41194U 15083A   26170.66867377 -.00000341  00000+0  00000+0 0  9999
2 41194   0.3650  83.7689 0004208 119.6556  50.8733  1.00273520 38550
JASON-3                 
1 41240U 16002A   26170.56573561 -.00000047  00000+0  61661-4 0  9999
2 41240  66.0405 120.8343 0008490 272.7095  87.2952 12.87628095487558
SENTINEL-3A             
1 41335U 16011A   26170.60097027  .00000029  00000+0  29912-4 0  9999
2 41335  98.6249 237.9501 0001418  99.4394 260.6947 14.26733295538401
ZIYUAN 3-02 (ZY 3-02)   
1 41556U 16033A   26170.62337653  .00004296  00000+0  19535-3 0  9991
2 41556  97.3833 246.3520 0012360 282.0726  77.9124 15.21198719558357
